#aV2015 10 26  0  0  0.00000000     288 DD+AD WGS84 FIT  NGA
## 1868  86400.00000000   300.00000000 57321 0.0000000000000
+   31     1  2  3  4  5  6  7  8  9 11 12 13 14 15 16 17 18
+         19 20 21 22 23 24 25 26 27 28 29 30 31 32  0  0  0
+          0  0  0  0  0  0  0  0  0  0  0  0  0  0  0  0  0
+          0  0  0  0  0  0  0  0  0  0  0  0  0  0  0  0  0
+          0  0  0  0  0  0  0  0  0  0  0  0  0  0  0  0  0
++         2  2  2  2  2  2  2  2  2  2  2  2  2  2  2  2  2
++         2  2  2  2  2  2  2  2  2  2  2  2  2  2  0  0  0
++         0  0  0  0  0  0  0  0  0  0  0  0  0  0  0  0  0
++         0  0  0  0  0  0  0  0  0  0  0  0  0  0  0  0  0
++         0  0  0  0  0  0  0  0  0  0  0  0  0  0  0  0  0
%c cc cc ccc ccc cccc cccc cccc cccc ccccc ccccc ccccc ccccc
%c cc cc ccc ccc cccc cccc cccc cccc ccccc ccccc ccccc ccccc
%f  0.0000000  0.000000000  0.00000000000  0.000000000000000
%f  0.0000000  0.000000000  0.00000000000  0.000000000000000
%i    0    0    0    0      0      0      0      0         0
%i    0    0    0    0      0      0      0      0         0
/*      NGA, ST. LOUIS,MO.                                  
/*   EPHEMERIS COMPUTED FROM 2 DAYS OF DATA                 
/*   EPOCHA v2.4 SMOOTHER                                   
/*   G1762 IERS2010 SATAF SATAPC                            
*  2015 10 26 14 30  0.00000000
P  1  20070.353849   9388.334381  14720.135669      3.148403                    
V  1   9842.296815  16058.920905 -23344.347569      0.007610                    
P  2 -13188.490801 -22648.985394   5944.049561    593.987587                    
V  2   6683.180936   3529.412092  29840.336283      0.011744                    
P  3  16042.486603    -19.740016  21174.686755     18.259278                    
V  3  -9588.928377  25118.680143   7268.352504     -0.021651                    
P  4  19530.926783  16945.098397   6272.948483    -37.563895                    
V  4   2796.963635   8517.111112 -29768.066184     -0.052440                    
P  5  -5535.218993 -19470.085572 -17160.249039   -181.132917                    
V  5  10001.249439 -19463.018391  19119.683553      0.038875                    
P  6  -2777.613550 -21300.957737  15622.670670     83.788074                    
V  6  13696.946173  14477.797371  22160.735777      0.069018                    
P  7  14329.753401  -5555.565878 -21571.855457    481.982202                    
V  7  16190.415212  22387.954974   4579.590535     -0.009318                    
P  8  21907.770264   6438.451893 -13509.929168    -10.105998                    
V  8 -16756.091874   4616.464340 -24895.635661     -0.013956                    
P  9  24192.409263  -8441.144240  -7030.856138      1.781589                    
V  9   9221.288971   1501.192068  29947.989129      0.045430                    
P 11  24047.858124   9300.489655   5983.046273   -612.470924                    
V 11   4609.823647   8413.851411 -28862.969159     -0.022073                    
P 12 -14344.917953  -3346.859089  21978.532407    340.123266                    
V 12  11622.047753 -25586.420261   3876.293528      0.032260                    
P 13 -13512.852601 -12694.003562 -19111.688179   -159.608346                    
V 13  23953.822029  -1792.224330 -15956.672273     -0.028346                    
P 14 -12092.424115  14038.205423  19225.975278     25.716206                    
V 14 -23953.045460    108.716667 -15495.087188     -0.024130                    
P 15 -23278.663828  -4837.737183 -12280.323537   -278.864552                    
V 15  14582.464022  -5595.293244 -25317.722815     -0.019868                    
P 16   3241.824518  19536.019873 -17589.873171    -72.682020                    
V 16 -10997.403306  19392.883197  19959.523208      0.037313                    
P 17  11493.896332 -14299.095471  19433.170068   -192.131932                    
V 17  24067.908533   -999.913966 -15419.375728     -0.010891                    
P 18 -15517.228488  18255.205548 -10646.924544    446.720647                    
V 18   1633.532291 -14830.364955 -26832.165022      0.036555                    
P 19  26465.040195  -3030.435855   2825.188970   -521.999491                    
V 19   3892.674746   1948.226719 -31425.923350     -0.004546                    
P 20 -15747.065615  -3290.714558 -21294.818329    366.133259                    
V 20   8013.019892 -25586.731769  -1911.299148      0.029644                    
P 21 -11993.254332   9728.988437 -20897.217622   -489.317245                    
V 21 -17927.320078 -21931.288135   -239.740665     -0.025370                    
P 22  -8516.823842  25034.037681   1265.370445    404.557116                    
V 22  -4354.501313   -216.383128 -30954.910293      0.037946                    
P 23  26220.767201    568.142408   5650.956889   -140.980124                    
V 23  -6461.580869   3629.791640  30099.672177     -0.021001                    
P 24 -20574.524259 -11481.342190  12387.468885     -6.955974                    
V 24  -7964.469998 -13796.296061 -25778.588976     -0.006020                    
P 25 -16924.599716  10966.075532  17094.894961    -58.081241                    
V 25   6896.258506 -20868.882653  20260.722421     -0.055747                    
P 26  -3373.161718  24814.286230  -8830.101931    -98.151516                    
V 26  -6604.389216   9431.076971  29032.537723     -0.140916                    
P 27  11726.683369  12476.024852 -20364.416448     30.677585                    
V 27 -25368.422399   4445.387004 -11777.408515      0.031130                    
P 28  12298.532400 -23441.567481   -869.207207    477.086937                    
V 28    948.987933   2562.300045 -32415.480141      0.026319                    
P 29 -25572.986111   5292.287075  -4724.014890    641.489959                    
V 29  -6182.616936  -1851.317347  31340.303605      0.019320                    
P 30   6431.581726 -16078.122490 -20115.622782     47.248835                    
V 30  15142.306810  20662.260295 -11752.907347      0.059800                    
P 31   2843.331162  21545.658930  15154.787279    297.731403                    
V 31 -12778.264264 -14366.961449  23352.881574     -0.014924                    
P 32   9909.786899  13415.798717  20715.277612     -2.526189                    
V 32 -12496.416352  23235.440219  -8509.298255      0.116751                    
EOF
